[{"OBJECT_NAME":"SITRO-AIS 19","OBJECT_ID":"2024-199AA","EPOCH":"2026-03-09T22:55:52.374720","MEAN_MOTION":14.97361264,"ECCENTRICITY":0.00068965,"INCLINATION":97.3309,"RA_OF_ASC_NODE":274.6556,"ARG_OF_PERICENTER":52.1847,"MEAN_ANOMALY":307.9999,"EPHEMERIS_TYPE":0,"CLASSIFICATION_TYPE":"U","NORAD_CAT_ID":61759,"ELEMENT_SET_NO":999,"REV_AT_EPOCH":12028,"BSTAR":0.00032569983,"MEAN_MOTION_DOT":3.731e-5,"MEAN_MOTION_DDOT":0},{"OBJECT_NAME":"STARLINK-34322","OBJECT_ID":"2025-142G","EPOCH":"2026-03-09T21:27:01.386720","MEAN_MOTION":14.98335941,"ECCENTRICITY":0.00026205,"INCLINATION":70.0016,"RA_OF_ASC_NODE":313.8164,"ARG_OF_PERICENTER":270.3197,"MEAN_ANOMALY":89.7661,"EPHEMERIS_TYPE":0,"CLASSIFICATION_TYPE":"U","NORAD_CAT_ID":64702,"ELEMENT_SET_NO":999,"REV_AT_EPOCH":3967,"BSTAR":0.00024374985,"MEAN_MOTION_DOT":2.817e-5,"MEAN_MOTION_DDOT":0}]
